start=new Date('2022-10-13T00:00:00.000Z').valueOf();
sats=[{"OBJECT_TYPE":"PAYLOAD","GP_ID":"214921712","EPOCH":"2022-10-12T19:27:54.362304","REF_FRAME":"TEME","MEAN_ELEMENT_THEORY":"SGP4","MEAN_ANOMALY":"276.7248","OBJECT_ID":"2021-005AX","TLE_LINE1":"1 47394U 21005AX  22285.81104586 -.00000848  00000-0 -38074-4 0  9995","RCS_SIZE":"LARGE","MEAN_MOTION_DDOT":"0.0000000000000","RA_OF_ASC_NODE":"210.7811","NORAD_CAT_ID":"47394","EPHEMERIS_TYPE":"0","ARG_OF_PERICENTER":"83.3875","OBJECT_NAME":"STARLINK-2115","MEAN_MOTION":"15.06384296","SEMIMAJOR_AXIS":"6925.397","PERIAPSIS":"546.444","LAUNCH_DATE":"2021-01-20","CLASSIFICATION_TYPE":"U","ELEMENT_SET_NO":"999","BSTAR":"-0.00003807400000","TLE_LINE2":"2 47394  53.0571 210.7811 0001181  83.3875 276.7248 15.06384296 96055","SITE":"AFETR","ECCENTRICITY":"0.00011810","TIME_SYSTEM":"UTC","REV_AT_EPOCH":"9605","INCLINATION":"53.0571","CENTER_NAME":"EARTH","MEAN_MOTION_DOT":"-0.00000848","PERIOD":"95.593","DECAY_DATE":null,"APOAPSIS":"548.080","COUNTRY_CODE":"US","FILE":"3606891"},{"GP_ID":"214921953","OBJECT_TYPE":"PAYLOAD","REF_FRAME":"TEME","EPOCH":"2022-10-12T19:57:43.689024","MEAN_ANOMALY":"267.8890","MEAN_ELEMENT_THEORY":"SGP4","MEAN_MOTION_DDOT":"0.0000000000000","RCS_SIZE":"LARGE","OBJECT_ID":"2021-005AY","TLE_LINE1":"1 47395U 21005AY  22285.83175566  .00000001  00000-0  18935-4 0  9997","EPHEMERIS_TYPE":"0","NORAD_CAT_ID":"47395","RA_OF_ASC_NODE":"205.5187","OBJECT_NAME":"STARLINK-2117","ARG_OF_PERICENTER":"92.2217","MEAN_MOTION":"15.06383959","LAUNCH_DATE":"2021-01-20","PERIAPSIS":"546.546","SEMIMAJOR_AXIS":"6925.398","ELEMENT_SET_NO":"999","CLASSIFICATION_TYPE":"U","TLE_LINE2":"2 47395  53.0540 205.5187 0001035  92.2217 267.8890 15.06383959 96124","BSTAR":"0.00001893500000","ECCENTRICITY":"0.00010350","TIME_SYSTEM":"UTC","SITE":"AFETR","INCLINATION":"53.0540","REV_AT_EPOCH":"9612","CENTER_NAME":"EARTH","PERIOD":"95.593","MEAN_MOTION_DOT":"0.00000001","APOAPSIS":"547.980","DECAY_DATE":null,"FILE":"3606891","COUNTRY_CODE":"US"},{"GP_ID":"214880578","OBJECT_TYPE":"PAYLOAD","REF_FRAME":"TEME","EPOCH":"2022-10-12T13:02:23.266176","MEAN_ANOMALY":"255.8899","MEAN_ELEMENT_THEORY":"SGP4","MEAN_MOTION_DDOT":"0.0000000000000","RCS_SIZE":"LARGE","OBJECT_ID":"2021-005AZ","TLE_LINE1":"1 47396U 21005AZ  22285.54332484  .00005255  00000-0  37143-3 0  9997","EPHEMERIS_TYPE":"0","NORAD_CAT_ID":"47396","RA_OF_ASC_NODE":"216.8137","OBJECT_NAME":"STARLINK-2118","ARG_OF_PERICENTER":"104.2241","MEAN_MOTION":"15.06400752","LAUNCH_DATE":"2021-01-20","PERIAPSIS":"546.267","SEMIMAJOR_AXIS":"6925.346","ELEMENT_SET_NO":"999","CLASSIFICATION_TYPE":"U","TLE_LINE2":"2 47396  53.0546 216.8137 0001363 104.2241 255.8899 15.06400752 95942","BSTAR":"0.00037143000000","ECCENTRICITY":"0.00013630","TIME_SYSTEM":"UTC","SITE":"AFETR","INCLINATION":"53.0546","REV_AT_EPOCH":"9594","CENTER_NAME":"EARTH","PERIOD":"95.592","MEAN_MOTION_DOT":"0.00005255","APOAPSIS":"548.155","DECAY_DATE":null,"FILE":"3606148","COUNTRY_CODE":"US"},{"LAUNCH_DATE":"2021-01-20","SEMIMAJOR_AXIS":"6925.383","PERIAPSIS":"546.327","MEAN_MOTION":"15.06388664","ARG_OF_PERICENTER":"67.9611","OBJECT_NAME":"STARLINK-2119","NORAD_CAT_ID":"47397","EPHEMERIS_TYPE":"0","RA_OF_ASC_NODE":"245.3221","MEAN_MOTION_DDOT":"0.0000000000000","TLE_LINE1":"1 47397U 21005BA  22285.87229380 -.00000053  00000-0  15324-4 0  9994","OBJECT_ID":"2021-005BA","RCS_SIZE":"LARGE","MEAN_ANOMALY":"292.1520","MEAN_ELEMENT_THEORY":"SGP4","REF_FRAME":"TEME","EPOCH":"2022-10-12T20:56:06.184320","OBJECT_TYPE":"PAYLOAD","GP_ID":"214920967","FILE":"3606891","COUNTRY_CODE":"US","APOAPSIS":"548.170","DECAY_DATE":null,"PERIOD":"95.593","MEAN_MOTION_DOT":"-0.00000053","CENTER_NAME":"EARTH","INCLINATION":"53.0541","REV_AT_EPOCH":"9557","TIME_SYSTEM":"UTC","ECCENTRICITY":"0.00013310","SITE":"AFETR","BSTAR":"0.00001532400000","TLE_LINE2":"2 47397  53.0541 245.3221 0001331  67.9611 292.1520 15.06388664 95571","ELEMENT_SET_NO":"999","CLASSIFICATION_TYPE":"U"},{"MEAN_MOTION":"15.06401612","LAUNCH_DATE":"2021-01-20","SEMIMAJOR_AXIS":"6925.344","PERIAPSIS":"546.324","NORAD_CAT_ID":"47398","EPHEMERIS_TYPE":"0","RA_OF_ASC_NODE":"216.9514","ARG_OF_PERICENTER":"83.4441","OBJECT_NAME":"STARLINK-2120","MEAN_ANOMALY":"276.6693","MEAN_ELEMENT_THEORY":"SGP4","MEAN_MOTION_DDOT":"0.0000000000000","TLE_LINE1":"1 47398U 21005BB  22285.51383785  .00009988  00000-0  68845-3 0  9996","OBJECT_ID":"2021-005BB","RCS_SIZE":"LARGE","OBJECT_TYPE":"PAYLOAD","GP_ID":"214888451","REF_FRAME":"TEME","EPOCH":"2022-10-12T12:19:55.590240","APOAPSIS":"548.094","DECAY_DATE":null,"FILE":"3606409","COUNTRY_CODE":"US","CENTER_NAME":"EARTH","PERIOD":"95.592","MEAN_MOTION_DOT":"0.00009988","TIME_SYSTEM":"UTC","ECCENTRICITY":"0.00012780","SITE":"AFETR","INCLINATION":"53.0543","REV_AT_EPOCH":"9654","ELEMENT_SET_NO":"999","CLASSIFICATION_TYPE":"U","BSTAR":"0.00068845000000","TLE_LINE2":"2 47398  53.0543 216.9514 0001278  83.4441 276.6693 15.06401612 96542"},{"INCLINATION":"53.0545","REV_AT_EPOCH":"9583","TIME_SYSTEM":"UTC","ECCENTRICITY":"0.00013930","SITE":"AFETR","BSTAR":"0.00003379700000","TLE_LINE2":"2 47399  53.0545 225.8310 0001393  88.2738 271.8411 15.06389139 95833","ELEMENT_SET_NO":"999","CLASSIFICATION_TYPE":"U","FILE":"3606891","COUNTRY_CODE":"US","APOAPSIS":"548.212","DECAY_DATE":null,"PERIOD":"95.593","MEAN_MOTION_DOT":"0.00000222","CENTER_NAME":"EARTH","MEAN_MOTION_DDOT":"0.0000000000000","RCS_SIZE":"LARGE","TLE_LINE1":"1 47399U 21005BC  22285.81519562  .00000222  00000-0  33797-4 0  9995","OBJECT_ID":"2021-005BC","MEAN_ANOMALY":"271.8411","MEAN_ELEMENT_THEORY":"SGP4","REF_FRAME":"TEME","EPOCH":"2022-10-12T19:33:52.901568","GP_ID":"214921453","OBJECT_TYPE":"PAYLOAD","LAUNCH_DATE":"2021-01-20","PERIAPSIS":"546.282","SEMIMAJOR_AXIS":"6925.382","MEAN_MOTION":"15.06389139","OBJECT_NAME":"STARLINK-2121","ARG_OF_PERICENTER":"88.2738","EPHEMERIS_TYPE":"0","NORAD_CAT_ID":"47399","RA_OF_ASC_NODE":"225.8310"},{"RA_OF_ASC_NODE":"205.7773","NORAD_CAT_ID":"47400","EPHEMERIS_TYPE":"0","ARG_OF_PERICENTER":"102.2402","OBJECT_NAME":"STARLINK-2122","MEAN_MOTION":"15.06393460","SEMIMAJOR_AXIS":"6925.369","PERIAPSIS":"546.357","LAUNCH_DATE":"2021-01-20","OBJECT_TYPE":"PAYLOAD","GP_ID":"214920718","EPOCH":"2022-10-12T18:38:06.720288","REF_FRAME":"TEME","MEAN_ELEMENT_THEORY":"SGP4","MEAN_ANOMALY":"257.8728","TLE_LINE1":"1 47400U 21005BD  22285.77646667  .00001476  00000-0  11796-3 0  9996","OBJECT_ID":"2021-005BD","RCS_SIZE":"LARGE","MEAN_MOTION_DDOT":"0.0000000000000","CENTER_NAME":"EARTH","MEAN_MOTION_DOT":"0.00001476","PERIOD":"95.593","DECAY_DATE":null,"APOAPSIS":"548.110","COUNTRY_CODE":"US","FILE":"3606891","CLASSIFICATION_TYPE":"U","ELEMENT_SET_NO":"999","BSTAR":"0.00011796000000","TLE_LINE2":"2 47400  53.0561 205.7773 0001266 102.2402 257.8728 15.06393460 96117","SITE":"AFETR","TIME_SYSTEM":"UTC","ECCENTRICITY":"0.00012660","REV_AT_EPOCH":"9611","INCLINATION":"53.0561"},{"APOAPSIS":"548.092","DECAY_DATE":null,"FILE":"3606891","COUNTRY_CODE":"US","CENTER_NAME":"EARTH","PERIOD":"95.592","MEAN_MOTION_DOT":"0.00000707","TIME_SYSTEM":"UTC","ECCENTRICITY":"0.00012440","SITE":"AFETR","INCLINATION":"53.0538","REV_AT_EPOCH":"9599","ELEMENT_SET_NO":"999","CLASSIFICATION_TYPE":"U","TLE_LINE2":"2 47401  53.0538 215.3974 0001244  82.5922 277.5208 15.06394483 95998","BSTAR":"0.00006633900000","MEAN_MOTION":"15.06394483","LAUNCH_DATE":"2021-01-20","SEMIMAJOR_AXIS":"6925.365","PERIAPSIS":"546.369","NORAD_CAT_ID":"47401","EPHEMERIS_TYPE":"0","RA_OF_ASC_NODE":"215.3974","ARG_OF_PERICENTER":"82.5922","OBJECT_NAME":"STARLINK-2123","MEAN_ANOMALY":"277.5208","MEAN_ELEMENT_THEORY":"SGP4","MEAN_MOTION_DDOT":"0.0000000000000","OBJECT_ID":"2021-005BE","TLE_LINE1":"1 47401U 21005BE  22285.86031408  .00000707  00000-0  66339-4 0  9998","RCS_SIZE":"LARGE","OBJECT_TYPE":"PAYLOAD","GP_ID":"214920467","REF_FRAME":"TEME","EPOCH":"2022-10-12T20:38:51.136512"},{"REV_AT_EPOCH":"9598","INCLINATION":"53.0552","SITE":"AFETR","ECCENTRICITY":"0.00013270","TIME_SYSTEM":"UTC","TLE_LINE2":"2 47402  53.0552 215.6053 0001327  83.6080 276.5060 15.06388971 95984","BSTAR":"0.00003123700000","CLASSIFICATION_TYPE":"U","ELEMENT_SET_NO":"999","COUNTRY_CODE":"US","FILE":"3606891","DECAY_DATE":null,"APOAPSIS":"548.166","MEAN_MOTION_DOT":"0.00000184","PERIOD":"95.593","CENTER_NAME":"EARTH","RCS_SIZE":"LARGE","OBJECT_ID":"2021-005BF","TLE_LINE1":"1 47402U 21005BF  22285.81239996  .00000184  00000-0  31237-4 0  9994","MEAN_MOTION_DDOT":"0.0000000000000","MEAN_ELEMENT_THEORY":"SGP4","MEAN_ANOMALY":"276.5060","EPOCH":"2022-10-12T19:29:51.356544","REF_FRAME":"TEME","GP_ID":"214921713","OBJECT_TYPE":"PAYLOAD","PERIAPSIS":"546.328","SEMIMAJOR_AXIS":"6925.382","LAUNCH_DATE":"2021-01-20","MEAN_MOTION":"15.06388971","OBJECT_NAME":"STARLINK-2124","ARG_OF_PERICENTER":"83.6080","RA_OF_ASC_NODE":"215.6053","EPHEMERIS_TYPE":"0","NORAD_CAT_ID":"47402"},{"NORAD_CAT_ID":"47403","EPHEMERIS_TYPE":"0","RA_OF_ASC_NODE":"216.7642","ARG_OF_PERICENTER":"92.0787","OBJECT_NAME":"STARLINK-2127","MEAN_MOTION":"15.06389491","LAUNCH_DATE":"2021-01-20","SEMIMAJOR_AXIS":"6925.381","PERIAPSIS":"546.343","OBJECT_TYPE":"PAYLOAD","GP_ID":"214881326","REF_FRAME":"TEME","EPOCH":"2022-10-12T13:18:19.213056","MEAN_ANOMALY":"268.0351","MEAN_ELEMENT_THEORY":"SGP4","MEAN_MOTION_DDOT":"0.0000000000000","TLE_LINE1":"1 47403U 21005BG  22285.55438904  .00000187  00000-0  31420-4 0  9993","OBJECT_ID":"2021-005BG","RCS_SIZE":"LARGE","CENTER_NAME":"EARTH","PERIOD":"95.593","MEAN_MOTION_DOT":"0.00000187","APOAPSIS":"548.149","DECAY_DATE":null,"FILE":"3606148","COUNTRY_CODE":"US","ELEMENT_SET_NO":"999","CLASSIFICATION_TYPE":"U","BSTAR":"0.00003142000000","TLE_LINE2":"2 47403  53.0550 216.7642 0001304  92.0787 268.0351 15.06389491 95945","TIME_SYSTEM":"UTC","ECCENTRICITY":"0.00013040","SITE":"AFETR","INCLINATION":"53.0550","REV_AT_EPOCH":"9594"}];
